start=new Date('2022-10-30T00:00:00.000Z').valueOf();
sats=[{"TIME_SYSTEM":"UTC","CLASSIFICATION_TYPE":"U","INCLINATION":"53.0548","RCS_SIZE":"LARGE","PERIAPSIS":"546.327","BSTAR":"0.00002665700000","OBJECT_ID":"2020-074AZ","TLE_LINE1":"1 46786U 20074AZ  22302.65159673  .00000116  00000-0  26657-4 0  9993","ECCENTRICITY":"0.00012840","DECAY_DATE":null,"COUNTRY_CODE":"US","OBJECT_NAME":"STARLINK-1893","MEAN_MOTION_DOT":"0.00000116","MEAN_MOTION_DDOT":"0.0000000000000","GP_ID":"216474889","APOAPSIS":"548.105","MEAN_ANOMALY":"266.2034","EPOCH":"2022-10-29T15:38:17.957472","TLE_LINE2":"2 46786  53.0548  40.0170 0001284  93.9102 266.2034 15.06399170112153","SITE":"AFETR","EPHEMERIS_TYPE":"0","SEMIMAJOR_AXIS":"6925.351","RA_OF_ASC_NODE":"40.0170","ELEMENT_SET_NO":"999","REF_FRAME":"TEME","MEAN_MOTION":"15.06399170","LAUNCH_DATE":"2020-10-24","OBJECT_TYPE":"PAYLOAD","FILE":"3637863","PERIOD":"95.592","ARG_OF_PERICENTER":"93.9102","CENTER_NAME":"EARTH","MEAN_ELEMENT_THEORY":"SGP4","REV_AT_EPOCH":"11215","NORAD_CAT_ID":"46786"},{"CLASSIFICATION_TYPE":"U","TIME_SYSTEM":"UTC","OBJECT_ID":"2020-074BA","BSTAR":"-0.00000907380000","PERIAPSIS":"546.227","RCS_SIZE":"LARGE","INCLINATION":"53.0564","DECAY_DATE":null,"COUNTRY_CODE":"US","ECCENTRICITY":"0.00014310","TLE_LINE1":"1 46787U 20074BA  22302.64423308 -.00000417  00000-0 -90738-5 0  9990","MEAN_MOTION_DDOT":"0.0000000000000","MEAN_MOTION_DOT":"-0.00000417","OBJECT_NAME":"STARLINK-1899","GP_ID":"216475119","TLE_LINE2":"2 46787  53.0564  40.0402 0001431  92.7667 267.3486 15.06398391112154","EPOCH":"2022-10-29T15:27:41.738112","MEAN_ANOMALY":"267.3486","APOAPSIS":"548.210","EPHEMERIS_TYPE":"0","SITE":"AFETR","ELEMENT_SET_NO":"999","RA_OF_ASC_NODE":"40.0402","SEMIMAJOR_AXIS":"6925.353","REF_FRAME":"TEME","LAUNCH_DATE":"2020-10-24","MEAN_MOTION":"15.06398391","FILE":"3637863","OBJECT_TYPE":"PAYLOAD","PERIOD":"95.592","CENTER_NAME":"EARTH","ARG_OF_PERICENTER":"92.7667","MEAN_ELEMENT_THEORY":"SGP4","NORAD_CAT_ID":"46787","REV_AT_EPOCH":"11215"},{"MEAN_MOTION_DDOT":"0.0000000000000","OBJECT_NAME":"STARLINK-1929","MEAN_MOTION_DOT":"0.00000427","COUNTRY_CODE":"US","DECAY_DATE":null,"TLE_LINE1":"1 46788U 20074BB  22302.70320553  .00000427  00000-0  47569-4 0  9998","ECCENTRICITY":"0.00015020","PERIAPSIS":"546.171","OBJECT_ID":"2020-074BB","BSTAR":"0.00004756900000","INCLINATION":"53.0544","RCS_SIZE":"LARGE","CLASSIFICATION_TYPE":"U","TIME_SYSTEM":"UTC","ELEMENT_SET_NO":"999","RA_OF_ASC_NODE":"39.7703","SEMIMAJOR_AXIS":"6925.346","EPHEMERIS_TYPE":"0","SITE":"AFETR","EPOCH":"2022-10-29T16:52:36.957792","MEAN_ANOMALY":"279.5028","TLE_LINE2":"2 46788  53.0544  39.7703 0001502  80.6131 279.5028 15.06400923112166","APOAPSIS":"548.251","GP_ID":"216475141","FILE":"3637863","OBJECT_TYPE":"PAYLOAD","MEAN_MOTION":"15.06400923","LAUNCH_DATE":"2020-10-24","REF_FRAME":"TEME","NORAD_CAT_ID":"46788","REV_AT_EPOCH":"11216","MEAN_ELEMENT_THEORY":"SGP4","CENTER_NAME":"EARTH","ARG_OF_PERICENTER":"80.6131","PERIOD":"95.592"},{"NORAD_CAT_ID":"46789","REV_AT_EPOCH":"11174","MEAN_ELEMENT_THEORY":"SGP4","CENTER_NAME":"EARTH","ARG_OF_PERICENTER":"73.8756","PERIOD":"95.592","FILE":"3637863","OBJECT_TYPE":"PAYLOAD","MEAN_MOTION":"15.06404860","LAUNCH_DATE":"2020-10-24","REF_FRAME":"TEME","ELEMENT_SET_NO":"999","RA_OF_ASC_NODE":"69.8420","SEMIMAJOR_AXIS":"6925.334","EPHEMERIS_TYPE":"0","SITE":"AFETR","MEAN_ANOMALY":"286.2391","EPOCH":"2022-10-29T17:25:48.893376","TLE_LINE2":"2 46789  53.0550  69.8420 0001443  73.8756 286.2391 15.06404860111740","APOAPSIS":"548.198","GP_ID":"216475391","MEAN_MOTION_DDOT":"0.0000000000000","OBJECT_NAME":"STARLINK-1930","MEAN_MOTION_DOT":"0.00003404","DECAY_DATE":null,"COUNTRY_CODE":"US","TLE_LINE1":"1 46789U 20074BC  22302.72626034  .00003404  00000-0  24730-3 0  9996","ECCENTRICITY":"0.00014430","PERIAPSIS":"546.199","BSTAR":"0.00024730000000","OBJECT_ID":"2020-074BC","INCLINATION":"53.0550","RCS_SIZE":"LARGE","CLASSIFICATION_TYPE":"U","TIME_SYSTEM":"UTC"},{"APOAPSIS":"547.968","EPOCH":"2022-10-29T18:08:14.900928","MEAN_ANOMALY":"257.5131","TLE_LINE2":"2 46790  53.0533  69.5407 0001130 102.5984 257.5131 15.06409158111749","GP_ID":"216476643","SEMIMAJOR_AXIS":"6925.320","RA_OF_ASC_NODE":"69.5407","ELEMENT_SET_NO":"999","SITE":"AFETR","EPHEMERIS_TYPE":"0","INCLINATION":"53.0533","RCS_SIZE":"LARGE","PERIAPSIS":"546.403","OBJECT_ID":"2020-074BD","BSTAR":"0.00015539000000","TIME_SYSTEM":"UTC","CLASSIFICATION_TYPE":"U","OBJECT_NAME":"STARLINK-1931","MEAN_MOTION_DOT":"0.00002034","MEAN_MOTION_DDOT":"0.0000000000000","TLE_LINE1":"1 46790U 20074BD  22302.75572802  .00002034  00000-0  15539-3 0  9999","ECCENTRICITY":"0.00011300","COUNTRY_CODE":"US","DECAY_DATE":null,"ARG_OF_PERICENTER":"102.5984","CENTER_NAME":"EARTH","PERIOD":"95.592","REV_AT_EPOCH":"11174","NORAD_CAT_ID":"46790","MEAN_ELEMENT_THEORY":"SGP4","MEAN_MOTION":"15.06409158","LAUNCH_DATE":"2020-10-24","REF_FRAME":"TEME","OBJECT_TYPE":"PAYLOAD","FILE":"3637863"},{"NORAD_CAT_ID":"46791","REV_AT_EPOCH":"11173","MEAN_ELEMENT_THEORY":"SGP4","CENTER_NAME":"EARTH","ARG_OF_PERICENTER":"106.8949","PERIOD":"95.592","FILE":"3637863","OBJECT_TYPE":"PAYLOAD","LAUNCH_DATE":"2020-10-24","MEAN_MOTION":"15.06407433","REF_FRAME":"TEME","ELEMENT_SET_NO":"999","SEMIMAJOR_AXIS":"6925.326","RA_OF_ASC_NODE":"70.0733","EPHEMERIS_TYPE":"0","SITE":"AFETR","TLE_LINE2":"2 46791  53.0550  70.0733 0001468 106.8949 253.2201 15.06407433111734","EPOCH":"2022-10-29T15:18:24.077952","MEAN_ANOMALY":"253.2201","APOAPSIS":"548.207","GP_ID":"216474619","MEAN_MOTION_DDOT":"0.0000000000000","MEAN_MOTION_DOT":"-0.00000385","OBJECT_NAME":"STARLINK-1933","COUNTRY_CODE":"US","DECAY_DATE":null,"ECCENTRICITY":"0.00014680","TLE_LINE1":"1 46791U 20074BE  22302.63777868 -.00000385  00000-0 -69604-5 0  9999","BSTAR":"-0.00000696040000","OBJECT_ID":"2020-074BE","PERIAPSIS":"546.174","RCS_SIZE":"LARGE","INCLINATION":"53.0550","CLASSIFICATION_TYPE":"U","TIME_SYSTEM":"UTC"},{"NORAD_CAT_ID":"46792","REV_AT_EPOCH":"11188","MEAN_ELEMENT_THEORY":"SGP4","CENTER_NAME":"EARTH","ARG_OF_PERICENTER":"94.7181","PERIOD":"95.592","FILE":"3637863","OBJECT_TYPE":"PAYLOAD","LAUNCH_DATE":"2020-10-24","MEAN_MOTION":"15.06396794","REF_FRAME":"TEME","ELEMENT_SET_NO":"999","SEMIMAJOR_AXIS":"6925.358","RA_OF_ASC_NODE":"59.6575","EPHEMERIS_TYPE":"0","SITE":"AFETR","TLE_LINE2":"2 46792  53.0576  59.6575 0001269  94.7181 265.3953 15.06396794111883","EPOCH":"2022-10-29T17:32:25.792512","MEAN_ANOMALY":"265.3953","APOAPSIS":"548.102","GP_ID":"216475642","MEAN_MOTION_DDOT":"0.0000000000000","MEAN_MOTION_DOT":"-0.00000111","OBJECT_NAME":"STARLINK-1934","COUNTRY_CODE":"US","DECAY_DATE":null,"ECCENTRICITY":"0.00012690","TLE_LINE1":"1 46792U 20074BF  22302.73085408 -.00000111  00000-0  11442-4 0  9995","OBJECT_ID":"2020-074BF","BSTAR":"0.00001144200000","PERIAPSIS":"546.345","RCS_SIZE":"LARGE","INCLINATION":"53.0576","CLASSIFICATION_TYPE":"U","TIME_SYSTEM":"UTC"},{"CENTER_NAME":"EARTH","ARG_OF_PERICENTER":"90.9036","PERIOD":"95.592","NORAD_CAT_ID":"46793","REV_AT_EPOCH":"11174","MEAN_ELEMENT_THEORY":"SGP4","MEAN_MOTION":"15.06409651","LAUNCH_DATE":"2020-10-24","REF_FRAME":"TEME","FILE":"3637863","OBJECT_TYPE":"PAYLOAD","MEAN_ANOMALY":"269.2106","EPOCH":"2022-10-29T18:13:33.755808","TLE_LINE2":"2 46793  53.0554  69.5353 0001342  90.9036 269.2106 15.06409651111748","APOAPSIS":"548.113","GP_ID":"216475892","ELEMENT_SET_NO":"999","SEMIMAJOR_AXIS":"6925.319","RA_OF_ASC_NODE":"69.5353","EPHEMERIS_TYPE":"0","SITE":"AFETR","PERIAPSIS":"546.255","OBJECT_ID":"2020-074BG","BSTAR":"0.00010111000000","INCLINATION":"53.0554","RCS_SIZE":"LARGE","CLASSIFICATION_TYPE":"U","TIME_SYSTEM":"UTC","MEAN_MOTION_DDOT":"0.0000000000000","OBJECT_NAME":"STARLINK-1941","MEAN_MOTION_DOT":"0.00001225","COUNTRY_CODE":"US","DECAY_DATE":null,"TLE_LINE1":"1 46793U 20074BG  22302.75941847  .00001225  00000-0  10111-3 0  9993","ECCENTRICITY":"0.00013420"},{"ELEMENT_SET_NO":"999","RA_OF_ASC_NODE":"69.1973","SEMIMAJOR_AXIS":"6925.366","EPHEMERIS_TYPE":"0","SITE":"AFETR","TLE_LINE2":"2 46794  53.0547  69.1973 0001463  71.1818 288.9329 15.06394428111760","MEAN_ANOMALY":"288.9329","EPOCH":"2022-10-29T19:59:43.056672","APOAPSIS":"548.244","GP_ID":"216476143","MEAN_MOTION_DDOT":"0.0000000000000","MEAN_MOTION_DOT":"-0.00002273","OBJECT_NAME":"STARLINK-1942","DECAY_DATE":null,"COUNTRY_CODE":"US","ECCENTRICITY":"0.00014630","TLE_LINE1":"1 46794U 20074BH  22302.83313723 -.00002273  00000-0 -13375-3 0  9990","OBJECT_ID":"2020-074BH","BSTAR":"-0.00013375000000","PERIAPSIS":"546.217","RCS_SIZE":"LARGE","INCLINATION":"53.0547","CLASSIFICATION_TYPE":"U","TIME_SYSTEM":"UTC","NORAD_CAT_ID":"46794","REV_AT_EPOCH":"11176","MEAN_ELEMENT_THEORY":"SGP4","CENTER_NAME":"EARTH","ARG_OF_PERICENTER":"71.1818","PERIOD":"95.592","FILE":"3637863","OBJECT_TYPE":"PAYLOAD","LAUNCH_DATE":"2020-10-24","MEAN_MOTION":"15.06394428","REF_FRAME":"TEME"},{"MEAN_ELEMENT_THEORY":"SGP4","NORAD_CAT_ID":"46796","REV_AT_EPOCH":"11186","PERIOD":"95.592","CENTER_NAME":"EARTH","ARG_OF_PERICENTER":"109.1450","FILE":"3637863","OBJECT_TYPE":"PAYLOAD","REF_FRAME":"TEME","MEAN_MOTION":"15.06400965","LAUNCH_DATE":"2020-10-24","EPHEMERIS_TYPE":"0","SITE":"AFETR","ELEMENT_SET_NO":"999","SEMIMAJOR_AXIS":"6925.346","RA_OF_ASC_NODE":"60.2052","GP_ID":"216475120","MEAN_ANOMALY":"250.9691","EPOCH":"2022-10-29T14:37:16.039488","TLE_LINE2":"2 46796  53.0553  60.2052 0001406 109.1450 250.9691 15.06400965111866","APOAPSIS":"548.184","DECAY_DATE":null,"COUNTRY_CODE":"US","TLE_LINE1":"1 46796U 20074BK  22302.60921342 -.00000500  00000-0 -14640-4 0  9997","ECCENTRICITY":"0.00014060","MEAN_MOTION_DDOT":"0.0000000000000","OBJECT_NAME":"STARLINK-1944","MEAN_MOTION_DOT":"-0.00000500","CLASSIFICATION_TYPE":"U","TIME_SYSTEM":"UTC","PERIAPSIS":"546.237","OBJECT_ID":"2020-074BK","BSTAR":"-0.00001464000000","INCLINATION":"53.0553","RCS_SIZE":"LARGE"}];
